{
  "type": "FeatureCollection",
  "features": [
    {
      "type": "Feature",
      "properties": {
        "norad_id": 54741,
        "name": "GALAXY 35 (G-35)",
        "group": "intelsat",
        "lat": -0.03456080696809144,
        "lon": -53.63643099970785,
        "alt_km": 35778.315042549,
        "timestamp": "2025-12-19T20:42:59.749092+00:00",
        "meta_object_name": "GALAXY 35 (G-35)",
        "meta_object_id": "2022-170A",
        "meta_epoch": "2025-12-19T06:04:53.142240",
        "meta_mean_motion": 1.00272367,
        "meta_eccentricity": 0.00021478,
        "meta_inclination": 0.0212,
        "meta_ra_of_asc_node": 56.458,
        "meta_arg_of_pericenter": 217.0175,
        "meta_mean_anomaly": 172.7551,
        "meta_ephemeris_type": 0,
        "meta_classification_type": "U",
        "meta_norad_cat_id": 54741,
        "meta_element_set_no": 999,
        "meta_rev_at_epoch": 1109,
        "meta_bstar": 0,
        "meta_mean_motion_dot": -1.38e-06,
        "meta_mean_motion_ddot": 0,
        "tle_line1": "1 54741U 22170A   25353.25339285 -.00000138  00000+0  00000+0 0  9999",
        "tle_line2": "2 54741   0.0212  56.4580 0002147 217.0175 172.7551  1.00272367 11090"
      },
      "geometry": {
        "type": "Point",
        "coordinates": [
          -53.63643099970785,
          -0.03456080696809144
        ]
      }
    },
    {
      "type": "Feature",
      "properties": {
        "norad_id": 54742,
        "name": "GALAXY 36 (G-36)",
        "group": "intelsat",
        "lat": -0.030300296772463334,
        "lon": -49.56969710831248,
        "alt_km": 35785.5247796656,
        "timestamp": "2025-12-19T20:42:59.749103+00:00",
        "meta_object_name": "GALAXY 36 (G-36)",
        "meta_object_id": "2022-170B",
        "meta_epoch": "2025-12-19T02:34:05.740896",
        "meta_mean_motion": 1.00270001,
        "meta_eccentricity": 3.641e-05,
        "meta_inclination": 0.0153,
        "meta_ra_of_asc_node": 356.8705,
        "meta_arg_of_pericenter": 357.1728,
        "meta_mean_anomaly": 43.4349,
        "meta_ephemeris_type": 0,
        "meta_classification_type": "U",
        "meta_norad_cat_id": 54742,
        "meta_element_set_no": 999,
        "meta_rev_at_epoch": 1096,
        "meta_bstar": 0,
        "meta_mean_motion_dot": 0,
        "meta_mean_motion_ddot": 0,
        "tle_line1": "1 54742U 22170B   25353.10701089  .00000000  00000+0  00000+0 0  9996",
        "tle_line2": "2 54742   0.0153 356.8705 0000364 357.1728  43.4349  1.00270001 10967"
      },
      "geometry": {
        "type": "Point",
        "coordinates": [
          -49.56969710831248,
          -0.030300296772463334
        ]
      }
    },
    {
      "type": "Feature",
      "properties": {
        "norad_id": 57493,
        "name": "GALAXY 37 (G-37)",
        "group": "intelsat",
        "lat": -0.041643231427085974,
        "lon": -87.55780107027944,
        "alt_km": 35778.23029928487,
        "timestamp": "2025-12-19T20:42:59.749115+00:00",
        "meta_object_name": "GALAXY 37 (G-37)",
        "meta_object_id": "2023-112A",
        "meta_epoch": "2025-12-19T05:45:45.873792",
        "meta_mean_motion": 1.00270598,
        "meta_eccentricity": 0.00019226,
        "meta_inclination": 0.0156,
        "meta_ra_of_asc_node": 346.1289,
        "meta_arg_of_pericenter": 285.0455,
        "meta_mean_anomaly": 136.3582,
        "meta_ephemeris_type": 0,
        "meta_classification_type": "U",
        "meta_norad_cat_id": 57493,
        "meta_element_set_no": 999,
        "meta_rev_at_epoch": 873,
        "meta_bstar": 0,
        "meta_mean_motion_dot": 7.3e-07,
        "meta_mean_motion_ddot": 0,
        "tle_line1": "1 57493U 23112A   25353.24011428  .00000073  00000+0  00000+0 0  9995",
        "tle_line2": "2 57493   0.0156 346.1289 0001922 285.0455 136.3582  1.00270598  8736"
      },
      "geometry": {
        "type": "Point",
        "coordinates": [
          -87.55780107027944,
          -0.041643231427085974
        ]
      }
    }
  ]
}